{
  "type": "FeatureCollection",
  "features": [
    {
      "type": "Feature",
      "properties": {
        "norad_id": 30182,
        "name": "FENGYUN 1C DEB",
        "group": "fengyun-1c-debris",
        "lat": -39.665713242148435,
        "lon": 53.07562938522131,
        "alt_km": 871.4595315480101,
        "timestamp": "2025-12-20T14:38:02.244401+00:00",
        "meta_object_name": "FENGYUN 1C DEB",
        "meta_object_id": "1999-025UP",
        "meta_epoch": "2025-12-20T02:55:07.332960",
        "meta_mean_motion": 13.96459374,
        "meta_eccentricity": 0.00746387,
        "meta_inclination": 99.0645,
        "meta_ra_of_asc_node": 44.9882,
        "meta_arg_of_pericenter": 2.4435,
        "meta_mean_anomaly": 25.3,
        "meta_ephemeris_type": 0,
        "meta_classification_type": "U",
        "meta_norad_cat_id": 30182,
        "meta_element_set_no": 999,
        "meta_rev_at_epoch": 96411,
        "meta_bstar": 1.8416495e-05,
        "meta_mean_motion_dot": -1.8e-07,
        "meta_mean_motion_ddot": 0,
        "tle_line1": "1 30182U 99025UP  25354.12161265 -.00000018  00000+0  18416-4 0  9995",
        "tle_line2": "2 30182  99.0645  44.9882 0074638   2.4435  25.3000 13.96459374964112"
      },
      "geometry": {
        "type": "Point",
        "coordinates": [
          53.07562938522131,
          -39.665713242148435
        ]
      }
    },
    {
      "type": "Feature",
      "properties": {
        "norad_id": 30183,
        "name": "FENGYUN 1C DEB",
        "group": "fengyun-1c-debris",
        "lat": -40.94443289375697,
        "lon": -151.01340185204768,
        "alt_km": 837.9840932951229,
        "timestamp": "2025-12-20T14:38:02.244411+00:00",
        "meta_object_name": "FENGYUN 1C DEB",
        "meta_object_id": "1999-025UQ",
        "meta_epoch": "2025-12-20T01:49:44.632128",
        "meta_mean_motion": 14.12675721,
        "meta_eccentricity": 0.00262489,
        "meta_inclination": 98.7878,
        "meta_ra_of_asc_node": 36.1759,
        "meta_arg_of_pericenter": 231.9819,
        "meta_mean_anomaly": 157.6498,
        "meta_ephemeris_type": 0,
        "meta_classification_type": "U",
        "meta_norad_cat_id": 30183,
        "meta_element_set_no": 999,
        "meta_rev_at_epoch": 97247,
        "meta_bstar": 0.00040579036,
        "meta_mean_motion_dot": 7.11e-06,
        "meta_mean_motion_ddot": 0,
        "tle_line1": "1 30183U 99025UQ  25354.07621102  .00000711  00000+0  40579-3 0  9994",
        "tle_line2": "2 30183  98.7878  36.1759 0026248 231.9819 157.6498 14.12675721972475"
      },
      "geometry": {
        "type": "Point",
        "coordinates": [
          -151.01340185204768,
          -40.94443289375697
        ]
      }
    },
    {
      "type": "Feature",
      "properties": {
        "norad_id": 30191,
        "name": "FENGYUN 1C DEB",
        "group": "fengyun-1c-debris",
        "lat": -15.07632765069807,
        "lon": -115.89404521795316,
        "alt_km": 590.0745657309408,
        "timestamp": "2025-12-20T14:38:02.244421+00:00",
        "meta_object_name": "FENGYUN 1C DEB",
        "meta_object_id": "1999-025UY",
        "meta_epoch": "2025-12-20T04:14:43.980288",
        "meta_mean_motion": 14.7813844,
        "meta_eccentricity": 0.00971175,
        "meta_inclination": 98.7754,
        "meta_ra_of_asc_node": 66.0195,
        "meta_arg_of_pericenter": 239.8618,
        "meta_mean_anomaly": 174.0743,
        "meta_ephemeris_type": 0,
        "meta_classification_type": "U",
        "meta_norad_cat_id": 30191,
        "meta_element_set_no": 999,
        "meta_rev_at_epoch": 385,
        "meta_bstar": 0.00082546123,
        "meta_mean_motion_dot": 6.402e-05,
        "meta_mean_motion_ddot": 0,
        "tle_line1": "1 30191U 99025UY  25354.17689792  .00006402  00000+0  82546-3 0  9996",
        "tle_line2": "2 30191  98.7754  66.0195 0097117 239.8618 174.0743 14.78138440  3857"
      },
      "geometry": {
        "type": "Point",
        "coordinates": [
          -115.89404521795316,
          -15.07632765069807
        ]
      }
    },
    {
      "type": "Feature",
      "properties": {
        "norad_id": 30193,
        "name": "FENGYUN 1C DEB",
        "group": "fengyun-1c-debris",
        "lat": 6.5087363482619605,
        "lon": 84.12469802743728,
        "alt_km": 696.0950550756152,
        "timestamp": "2025-12-20T14:38:02.244432+00:00",
        "meta_object_name": "FENGYUN 1C DEB",
        "meta_object_id": "1999-025VA",
        "meta_epoch": "2025-12-19T12:08:11.626368",
        "meta_mean_motion": 14.49152817,
        "meta_eccentricity": 0.0107466,
        "meta_inclination": 98.757,
        "meta_ra_of_asc_node": 261.9715,
        "meta_arg_of_pericenter": 112.8185,
        "meta_mean_anomaly": 62.8837,
        "meta_ephemeris_type": 0,
        "meta_classification_type": "U",
        "meta_norad_cat_id": 30193,
        "meta_element_set_no": 999,
        "meta_rev_at_epoch": 99264,
        "meta_bstar": 0.00045594,
        "meta_mean_motion_dot": 1.815e-05,
        "meta_mean_motion_ddot": 0,
        "tle_line1": "1 30193U 99025VA  25353.50569012  .00001815  00000+0  45594-3 0  9991",
        "tle_line2": "2 30193  98.7570 261.9715 0107466 112.8185  62.8837 14.49152817992641"
      },
      "geometry": {
        "type": "Point",
        "coordinates": [
          84.12469802743728,
          6.5087363482619605
        ]
      }
    },
    {
      "type": "Feature",
      "properties": {
        "norad_id": 30196,
        "name": "FENGYUN 1C DEB",
        "group": "fengyun-1c-debris",
        "lat": 19.81284146206172,
        "lon": 83.81060487150812,
        "alt_km": 747.1950333154782,
        "timestamp": "2025-12-20T14:38:02.244442+00:00",
        "meta_object_name": "FENGYUN 1C DEB",
        "meta_object_id": "1999-025VD",
        "meta_epoch": "2025-12-20T04:34:13.674720",
        "meta_mean_motion": 14.25849675,
        "meta_eccentricity": 0.00866805,
        "meta_inclination": 98.6399,
        "meta_ra_of_asc_node": 86.5374,
        "meta_arg_of_pericenter": 41.6738,
        "meta_mean_anomaly": 347.6945,
        "meta_ephemeris_type": 0,
        "meta_classification_type": "U",
        "meta_norad_cat_id": 30196,
        "meta_element_set_no": 999,
        "meta_rev_at_epoch": 98471,
        "meta_bstar": 4.1817055e-05,
        "meta_mean_motion_dot": 6e-07,
        "meta_mean_motion_ddot": 0,
        "tle_line1": "1 30196U 99025VD  25354.19043605  .00000060  00000+0  41817-4 0  9991",
        "tle_line2": "2 30196  98.6399  86.5374 0086680  41.6738 347.6945 14.25849675984713"
      },
      "geometry": {
        "type": "Point",
        "coordinates": [
          83.81060487150812,
          19.81284146206172
        ]
      }
    },
    {
      "type": "Feature",
      "properties": {
        "norad_id": 30197,
        "name": "FENGYUN 1C DEB",
        "group": "fengyun-1c-debris",
        "lat": -6.815295276615175,
        "lon": 99.19445886718619,
        "alt_km": 730.7215060158733,
        "timestamp": "2025-12-20T14:38:02.244452+00:00",
        "meta_object_name": "FENGYUN 1C DEB",
        "meta_object_id": "1999-025VE",
        "meta_epoch": "2025-12-20T00:41:06.079776",
        "meta_mean_motion": 14.37221186,
        "meta_eccentricity": 0.00571678,
        "meta_inclination": 98.9395,
        "meta_ra_of_asc_node": 279.6687,
        "meta_arg_of_pericenter": 192.8262,
        "meta_mean_anomaly": 228.556,
        "meta_ephemeris_type": 0,
        "meta_classification_type": "U",
        "meta_norad_cat_id": 30197,
        "meta_element_set_no": 999,
        "meta_rev_at_epoch": 98591,
        "meta_bstar": 0.00048304055,
        "meta_mean_motion_dot": 1.418e-05,
        "meta_mean_motion_ddot": 0,
        "tle_line1": "1 30197U 99025VE  25354.02854259  .00001418  00000+0  48304-3 0  9994",
        "tle_line2": "2 30197  98.9395 279.6687 0057167 192.8262 228.5560 14.37221186985911"
      },
      "geometry": {
        "type": "Point",
        "coordinates": [
          99.19445886718619,
          -6.815295276615175
        ]
      }
    },
    {
      "type": "Feature",
      "properties": {
        "norad_id": 30198,
        "name": "FENGYUN 1C DEB",
        "group": "fengyun-1c-debris",
        "lat": 26.980172622641824,
        "lon": -49.980664008582835,
        "alt_km": 652.4171980243718,
        "timestamp": "2025-12-20T14:38:02.244462+00:00",
        "meta_object_name": "FENGYUN 1C DEB",
        "meta_object_id": "1999-025VF",
        "meta_epoch": "2025-12-20T03:09:43.468704",
        "meta_mean_motion": 14.50460535,
        "meta_eccentricity": 0.01069608,
        "meta_inclination": 98.4484,
        "meta_ra_of_asc_node": 125.2003,
        "meta_arg_of_pericenter": 175.8767,
        "meta_mean_anomaly": 2.6996,
        "meta_ephemeris_type": 0,
        "meta_classification_type": "U",
        "meta_norad_cat_id": 30198,
        "meta_element_set_no": 999,
        "meta_rev_at_epoch": 98614,
        "meta_bstar": 0.0012525206,
        "meta_mean_motion_dot": 5.225e-05,
        "meta_mean_motion_ddot": 0,
        "tle_line1": "1 30198U 99025VF  25354.13175311  .00005225  00000+0  12525-2 0  9997",
        "tle_line2": "2 30198  98.4484 125.2003 0106960 175.8767   2.6996 14.50460535986149"
      },
      "geometry": {
        "type": "Point",
        "coordinates": [
          -49.980664008582835,
          26.980172622641824
        ]
      }
    }
  ]
}